ONEWEB-0584             
1 54651U 22166K   23179.28175425  .00000136  00000+0  29816-3 0  9992
2 54651  87.9197 100.0211 0002405  82.2258 277.9149 13.21824598 28661
ONEWEB-0585             
1 54652U 22166L   23178.85070797  .00000038  00000+0  60130-4 0  9997
2 54652  87.9244 100.1052 0001977  74.9410 285.1942 13.21826119 28618
ONEWEB-0586             
1 54653U 22166M   23179.01471532 -.00000036  00000+0 -11884-3 0  9990
2 54653  87.9255 100.1318 0002929  79.7609 280.3855 13.21824635 28630
ONEWEB-0587             
1 54654U 22166N   23179.17772449  .00000023  00000+0  23519-4 0  9992
2 54654  87.9289 100.0156 0001302  84.3829 275.7453 13.21838915 28804
ONEWEB-0589             
1 54655U 22166P   23179.08829607  .00000518  00000+0  12221-2 0  9997
2 54655  87.9249 100.0607 0003451  91.2080 268.9450 13.21822871 28664
ONEWEB-0590             
1 54656U 22166Q   23178.81075532  .00000100  00000+0  21040-3 0  9995
2 54656  87.9256 100.1152 0001801  83.3824 276.7515 13.21821905 28604
ONEWEB-0591             
1 54657U 22166R   23178.82335049 -.00000269  00000+0 -68225-3 0  9993
2 54657  87.9246 100.1167 0002191  82.5481 277.5902 13.21825591 28630
ONEWEB-0592             
1 54658U 22166S   23178.82547907  .00000070  00000+0  13868-3 0  9993
2 54658  87.9320 100.1014 0002249  85.2769 274.8622 13.21824767 28529
ONEWEB-0593             
1 54659U 22166T   23178.47010493 -.00000066  00000+0 -19068-3 0  9995
2 54659  87.9243 100.1824 0002327  82.8499 277.2900 13.21824136 28585
ONEWEB-0594             
1 54660U 22166U   23178.86751939 -.00000007  00000+0 -48666-4 0  9999
2 54660  87.9319 100.0850 0002035  72.0988 288.0368 13.21824851 28648
ONEWEB-0595             
1 54661U 22166V   23178.31451915  .00000043  00000+0  71731-4 0  9998
2 54661  87.9237 100.2085 0001879  77.7650 282.3694 13.21825671 28553
ONEWEB-0596             
1 54662U 22166W   23178.81914601 -.00000145  00000+0 -38156-3 0  9998
2 54662  87.9196 100.1091 0002340  87.5342 272.6060 13.21827626 28624
ONEWEB-0597             
1 54663U 22166X   23178.34604573  .00000042  00000+0  69037-4 0  9998
2 54663  87.9190 100.2042 0002488  79.2941 280.8473 13.21823572 28560
ONEWEB-0600             
1 54664U 22166Y   23178.85699524 -.00000335  00000+0 -84312-3 0  9994
2 54664  87.9246 100.1454 0002314  77.2803 282.8590 13.21825771 28602
ONEWEB-0601             
1 54665U 22166Z   23179.30380414  .00000036  00000+0  54674-4 0  9996
2 54665  87.9239 100.0108 0002312  90.3811 269.7588 13.21821869 28844
ONEWEB-0602             
1 54666U 22166AA  23178.81705888  .00000072  00000+0  14354-3 0  9998
2 54666  87.9344 100.1108 0002292  82.1581 277.9813 13.21825954 28631
ONEWEB-0603             
1 54667U 22166AB  23179.35113280 -.00000219  00000+0 -56248-3 0  9991
2 54667  87.9178 100.0045 0002655  80.3523 279.7910 13.21828646 28623
ONEWEB-0604             
1 54668U 22166AC  23179.33852893  .00000129  00000+0  28015-3 0  9999
2 54668  87.9347 100.0057 0002727  75.1288 285.0148 13.21827602 28595
ONEWEB-0605             
1 54669U 22166AD  23178.80235071  .00000060  00000+0  11283-3 0  9997
2 54669  87.9202 100.1608 0002409  90.8087 269.3323 13.21827881 28596
ONEWEB-0606             
1 54670U 22166AE  23178.29453266  .00000109  00000+0  23167-3 0  9998
2 54670  87.9276 100.1998 0001989  80.6615 279.4744 13.21835281 28577
ONEWEB-0607             
1 54671U 22166AF  23178.78971943  .00000045  00000+0  76951-4 0  9999
2 54671  87.9332 100.1038 0002349  81.5408 278.5992 13.21828588 28619
ONEWEB-0608             
1 54672U 22166AG  23178.79602818 -.00000380  00000+0 -95094-3 0  9995
2 54672  87.9186 100.1456 0002679  87.8259 272.3182 13.21830709 28622
ONEWEB-0610             
1 54673U 22166AH  23178.85280211 -.00000006  00000+0 -46246-4 0  9993
2 54673  87.9171 100.1335 0002662  86.7266 273.4172 13.21828452 28545
ONEWEB-0611             
1 54674U 22166AJ  23178.84650118 -.00000017  00000+0 -73857-4 0  9990
2 54674  87.9245 100.1054 0001662  65.9107 294.2201 13.21827116 28537
ONEWEB-0612             
1 54675U 22166AK  23178.85911992  .00000017  00000+0  96315-5 0  9995
2 54675  87.9237 100.1024 0002314  90.4535 269.6864 13.21825282 28521
ONEWEB-0615             
1 54676U 22166AL  23178.84019529 -.00000012  00000+0 -60792-4 0  9996
2 54676  87.9251 100.1061 0002363  77.9751 282.1648 13.21827828 28532
ONEWEB-0655             
1 54677U 22166AM  23179.04205545  .00000078  00000+0  15735-3 0  9991
2 54677  87.9255 100.0718 0002181  81.8747 278.2635 13.21827906 28553
ONEWEB-0659             
1 54678U 22166AN  23178.83175925 -.00000317  00000+0 -80011-3 0  9993
2 54678  87.9246 100.1611 0001692  80.4518 279.6807 13.21826536 28615
ONEWEB-0685             
1 54679U 22166AP  23178.83387700 -.00000045  00000+0 -14108-3 0  9992
2 54679  87.9248 100.1097 0003047  76.6094 283.5379 13.21822970 28502
ONEWEB-0712             
1 54680U 22166AQ  23179.25189911  .00003678  00000+0  79242-2 0  9997
2 54680  87.9395  84.8056 0001573  40.1021 320.0233 13.29352079 29646
ONEWEB-0714             
1 54681U 22166AR  23178.83807264 -.00000026  00000+0 -94208-4 0  9996
2 54681  87.9242 100.1061 0002423  77.3240 282.8165 13.21827387 28623
ONEWEB-0532             
1 55140U 23004A   23179.58334491  .00000014  00000+0  00000+0 0  9996
2 55140  87.7717 221.4044 0000771 232.1587 328.8404 13.47685971 24639
ONEWEB-0533             
1 55141U 23004B   23178.81191293  .00000399  00000+0  12278-3 0  9993
2 55141  86.8388 217.2170 0003429  48.4304 311.7189 14.39172893 24812
ONEWEB-0541             
1 55142U 23004C   23179.13440904  .00000045  00000+0  74075-4 0  9998
2 55142  88.0377 236.5190 0002113 109.9026 250.2338 13.25752856 23699
ONEWEB-0543             
1 55143U 23004D   23178.17287096  .00001221  00000+0  21862-3 0  9995
2 55143  86.6269 215.3737 0003925  42.4376 317.7140 14.66042732 24857
ONEWEB-0544             
1 55144U 23004E   23178.17807010  .00000887  00000+0  15776-3 0  9994
2 55144  86.6291 215.2968 0002872  72.5267 287.6261 14.66023894 24869
ONEWEB-0560             
1 55145U 23004F   23178.37835278  .00001239  00000+0  22189-3 0  9992
2 55145  86.6311 215.2399 0002051  67.6316 292.5115 14.66048058 24895
ONEWEB-0565             
1 55146U 23004G   23178.34981890  .00001021  00000+0  18238-3 0  9991
2 55146  86.6288 215.1720 0002642  62.7278 297.4204 14.65994477 24892
ONEWEB-0567             
1 55147U 23004H   23179.17885526  .00000935  00000+0  16641-3 0  9992
2 55147  86.6288 214.8406 0004963  43.5434 316.6171 14.66042063 25017
ONEWEB-0569             
1 55148U 23004J   23178.34083069  .00001118  00000+0  20009-3 0  9990
2 55148  86.5340 214.9764 0004610  62.2513 297.9168 14.65973176 24887
ONEWEB-0570             
1 55149U 23004K   23178.59244813  .00001011  00000+0  17969-3 0  9997
2 55149  86.6264 215.0961 0003179  70.9322 289.2235 14.66211256 24927
ONEWEB-0571             
1 55150U 23004L   23178.37089309  .00001103  00000+0  19704-3 0  9993
2 55150  86.6309 215.2377 0003519  48.0599 312.0914 14.66045147 24891
ONEWEB-0572             
1 55151U 23004M   23179.58334491  .00000014  00000+0  00000+0 0  9998
2 55151  87.7997 221.3803 0003212  58.2166 126.4728 13.42349984 24622
ONEWEB-0573             
1 55152U 23004N   23179.15996736 -.00000976  00000+0 -18278-3 0  9997
2 55152  86.6277 214.9164 0003467  58.9083 301.2470 14.65984385 25003
ONEWEB-0588             
1 55153U 23004P   23179.13489525  .00001030  00000+0  18375-3 0  9997
2 55153  86.6270 214.9901 0005372  36.3271 323.8307 14.66034207 24998
ONEWEB-0598             
1 55154U 23004Q   23179.18779598  .00000054  00000+0  96196-4 0  9998
2 55154  87.9420 236.6856 0002299 109.9889 250.1494 13.24539656 23626
ONEWEB-0599             
1 55155U 23004R   23179.58334491  .00000014  00000+0  00000+0 0  9992
2 55155  87.7844 221.3970 0013546  22.1555 317.1894 13.44708895 24620
ONEWEB-0614             
1 55156U 23004S   23178.66785866 -.00050892  00000+0 -11989+0 0  9996
2 55156  87.9419 236.7800 0003671 110.9494 249.2035 13.24064525 23533
ONEWEB-0616             
1 55157U 23004T   23179.58334491  .00000015  00000+0  00000+0 0  9995
2 55157  87.6165 219.7837 0013203  26.6864 180.6378 13.61187856 24720
ONEWEB-0617             
1 55158U 23004U   23178.41456745  .00000122  00000+0  25454-3 0  9997
2 55158  87.9435 236.8417 0003248 100.8526 259.2975 13.24480207 23513
ONEWEB-0618             
1 55159U 23004V   23178.66165254  .00000175  00000+0  64615-4 0  9998
2 55159  86.9098 219.1970 0013427   6.4353 353.7009 14.26595207 24659
ONEWEB-0619             
1 55160U 23004W   23179.58334491  .00000015  00000+0  00000+0 0  9999
2 55160  87.7247 221.5369 0014537  37.8797 145.6198 13.52078240 24634
ONEWEB-0620             
1 55161U 23004X   23178.84763522 -.00000102  00000+0 -26752-3 0  9994
2 55161  87.9413 236.7530 0002167 102.4680 257.6698 13.24558037 23539
ONEWEB-0621             
1 55162U 23004Y   23178.70356572 -.00000006  00000+0 -35873-4 0  9991
2 55162  87.7028 238.2128 0012548  66.3201 293.9259 13.41781168 23382
ONEWEB-0622             
1 55163U 23004Z   23179.23135122 -.00005048  00000+0 -14280-1 0  9994
2 55163  87.8837 236.6513 0003062 107.8477 252.2985 13.11453043 23603
ONEWEB-0623             
1 55164U 23004AA  23179.58334491  .00000014  00000+0  00000+0 0  9992
2 55164  87.7294 221.5664 0013469  25.6470 209.0166 13.52201303 24632
ONEWEB-0624             
1 55165U 23004AB  23179.14554600  .00001034  00000+0  18439-3 0  9993
2 55165  86.6313 214.8527 0005135  99.4391 260.7403 14.66067624 25011
ONEWEB-0625             
1 55166U 23004AC  23179.58334491  .00000015  00000+0  00000+0 0  9995
2 55166  87.6971 221.5944 0012094  23.4517  68.6450 13.54646309 24622
ONEWEB-0626             
1 55167U 23004AD  23179.58334491  .00000015  00000+0  00000+0 0  9996
2 55167  87.7010 221.5539 0016591  49.6824 306.9814 13.53743331 24630
